0 CZ-2C DEB
1 37770U 11039F   13281.85737512  .00002219  00000-0  54757-3 0  4283
2 37770 097.8952 006.0213 0106184 270.9352 210.9182 14.49697090116062
0 CZ-2C DEB
1 37770U 11039F   13284.19165861  .00003322  00000-0  81401-3 0  4298
2 37770 097.8948 008.2082 0106087 263.7014 153.4178 14.49712252116392
0 CZ-2C DEB
1 37770U 11039F   13286.19354214  .00002897  00000-0  71092-3 0  4305
2 37770 097.8955 010.0841 0106230 257.4597 161.2621 14.49723080116683
0 CZ-2C DEB
1 37770U 11039F   13288.69166133  .00004336  00000-0  10580-2 0  4318
2 37770 097.8959 012.4256 0106286 249.6969 239.0585 14.49740114117052
0 CZ-2C DEB
1 37770U 11039F   13290.76008491  .00004888  00000-0  11906-2 0  4327
2 37770 097.8958 014.3643 0106386 243.2600 234.3975 14.49755909117357
0 CZ-2C DEB
1 37770U 11039F   13292.83176668  .00004330  00000-0  10555-2 0  4331
2 37770 097.8952 016.3062 0106494 236.8244 246.8505 14.49771598117652
0 CZ-2C DEB
1 37770U 11039F   13294.83279867  .00005415  00000-0  13161-2 0  4340
2 37770 097.8946 018.1816 0106623 230.6208 250.6677 14.49786332117945
